{"type": "FeatureCollection", "features": [ {"type": "Feature", "properties": {"norad_id": 28659, "name": "DIRECTV 8", "group": "intelsat", "lat": 0.024014396689454976, "lon": 133.85385165235607, "alt_km": 35794.45717164797, "timestamp": "2025-12-10T11:33:53.058939+00:00", "meta": {"OBJECT_NAME": "DIRECTV 8", "OBJECT_ID": "2005-019A", "EPOCH": "2025-12-09T14:43:08.593824", "MEAN_MOTION": 1.00271975, "ECCENTRICITY": 0.0003178, "INCLINATION": 0.0169, "RA_OF_ASC_NODE": 7.3328, "ARG_OF_PERICENTER": 255.58, "MEAN_ANOMALY": 277.4302, "EPHEMERIS_TYPE": 0, "CLASSIFICATION_TYPE": "U", "NORAD_CAT_ID": 28659, "ELEMENT_SET_NO": 999, "REV_AT_EPOCH": 7517, "BSTAR": 0, "MEAN_MOTION_DOT": 3e-08, "MEAN_MOTION_DDOT": 0}, "tle": {"line1": "1 28659U 05019A   25343.61329391  .00000003  00000+0  00000+0 0  9997", "line2": "2 28659   0.0169   7.3328 0003178 255.5800 277.4302  1.00271975 75172"}}, "geometry": {"type": "Point", "coordinates": [133.85385165235607, 0.024014396689454976]}}, {"type": "Feature", "properties": {"norad_id": 28702, "name": "GALAXY 28 (G-28)", "group": "intelsat", "lat": 2.7922862065027507, "lon": 164.20260628439462, "alt_km": 35787.33962226124, "timestamp": "2025-12-10T11:33:53.058965+00:00", "meta": {"OBJECT_NAME": "GALAXY 28 (G-28)", "OBJECT_ID": "2005-022A", "EPOCH": "2025-12-09T12:29:48.392736", "MEAN_MOTION": 1.00271081, "ECCENTRICITY": 0.00026859, "INCLINATION": 2.8104, "RA_OF_ASC_NODE": 81.3192, "ARG_OF_PERICENTER": 179.8142, "MEAN_ANOMALY": 276.1436, "EPHEMERIS_TYPE": 0, "CLASSIFICATION_TYPE": "U", "NORAD_CAT_ID": 28702, "ELEMENT_SET_NO": 999, "REV_AT_EPOCH": 5007, "BSTAR": 0, "MEAN_MOTION_DOT": -1.85e-06, "MEAN_MOTION_DDOT": 0}, "tle": {"line1": "1 28702U 05022A   25343.52069899 -.00000185  00000+0  00000+0 0  9996", "line2": "2 28702   2.8104  81.3192 0002685 179.8142 276.1436  1.00271081 50074"}}, "geometry": {"type": "Point", "coordinates": [164.20260628439462, 2.7922862065027507]}}, {"type": "Feature", "properties": {"norad_id": 29236, "name": "GALAXY 16 (G-16)", "group": "intelsat", "lat": 0.012774158339484332, "lon": 153.88365167764974, "alt_km": 35788.053428888685, "timestamp": "2025-12-10T11:33:53.058979+00:00", "meta": {"OBJECT_NAME": "GALAXY 16 (G-16)", "OBJECT_ID": "2006-023A", "EPOCH": "2025-12-10T04:31:38.802720", "MEAN_MOTION": 1.00272193, "ECCENTRICITY": 0.0002782, "INCLINATION": 0.0413, "RA_OF_ASC_NODE": 154.4032, "ARG_OF_PERICENTER": 99.6092, "MEAN_ANOMALY": 154.0571, "EPHEMERIS_TYPE": 0, "CLASSIFICATION_TYPE": "U", "NORAD_CAT_ID": 29236, "ELEMENT_SET_NO": 999, "REV_AT_EPOCH": 7107, "BSTAR": 0, "MEAN_MOTION_DOT": -1.23e-06, "MEAN_MOTION_DDOT": 0}, "tle": {"line1": "1 29236U 06023A   25344.18864355 -.00000123  00000+0  00000+0 0  9996", "line2": "2 29236   0.0413 154.4032 0002782  99.6092 154.0571  1.00272193 71078"}}, "geometry": {"type": "Point", "coordinates": [153.88365167764974, 0.012774158339484332]}}, {"type": "Feature", "properties": {"norad_id": 29494, "name": "DIRECTV 9S", "group": "intelsat", "lat": 1.8038141460349915, "lon": 151.6643509740833, "alt_km": 35790.835556838545, "timestamp": "2025-12-10T11:33:53.058991+00:00", "meta": {"OBJECT_NAME": "DIRECTV 9S", "OBJECT_ID": "2006-043A", "EPOCH": "2025-12-10T04:31:38.802720", "MEAN_MOTION": 1.00270776, "ECCENTRICITY": 0.0003126, "INCLINATION": 1.9339, "RA_OF_ASC_NODE": 83.2331, "ARG_OF_PERICENTER": 179.2716, "MEAN_ANOMALY": 143.3579, "EPHEMERIS_TYPE": 0, "CLASSIFICATION_TYPE": "U", "NORAD_CAT_ID": 29494, "ELEMENT_SET_NO": 999, "REV_AT_EPOCH": 4948, "BSTAR": 0, "MEAN_MOTION_DOT": -1.1e-06, "MEAN_MOTION_DDOT": 0}, "tle": {"line1": "1 29494U 06043A   25344.18864355 -.00000110  00000+0  00000+0 0  9990", "line2": "2 29494   1.9339  83.2331 0003126 179.2716 143.3579  1.00270776 49487"}}, "geometry": {"type": "Point", "coordinates": [151.6643509740833, 1.8038141460349915]}}, {"type": "Feature", "properties": {"norad_id": 31307, "name": "GALAXY 17 (G-17)", "group": "intelsat", "lat": 2.4865266413107587, "lon": 167.86647063783707, "alt_km": 35779.93226145896, "timestamp": "2025-12-10T11:33:53.059016+00:00", "meta": {"OBJECT_NAME": "GALAXY 17 (G-17)", "OBJECT_ID": "2007-016B", "EPOCH": "2025-12-10T02:10:38.678016", "MEAN_MOTION": 1.0027256, "ECCENTRICITY": 0.000602, "INCLINATION": 2.4935, "RA_OF_ASC_NODE": 82.3119, "ARG_OF_PERICENTER": 162.6841, "MEAN_ANOMALY": 141.7455, "EPHEMERIS_TYPE": 0, "CLASSIFICATION_TYPE": "U", "NORAD_CAT_ID": 31307, "ELEMENT_SET_NO": 999, "REV_AT_EPOCH": 6790, "BSTAR": 0, "MEAN_MOTION_DOT": -2.03e-06, "MEAN_MOTION_DDOT": 0}, "tle": {"line1": "1 31307U 07016B   25344.09072544 -.00000203  00000+0  00000+0 0  9991", "line2": "2 31307   2.4935  82.3119 0006020 162.6841 141.7455  1.00272560 67901"}}, "geometry": {"type": "Point", "coordinates": [167.86647063783707, 2.4865266413107587]}}, {"type": "Feature", "properties": {"norad_id": 31862, "name": "DIRECTV 10", "group": "intelsat", "lat": 0.00040258927305917105, "lon": 150.13337278933056, "alt_km": 35785.58659080804, "timestamp": "2025-12-10T11:33:53.059030+00:00", "meta": {"OBJECT_NAME": "DIRECTV 10", "OBJECT_ID": "2007-032A", "EPOCH": "2025-12-10T04:31:38.802720", "MEAN_MOTION": 1.00270185, "ECCENTRICITY": 3.99e-05, "INCLINATION": 0.0096, "RA_OF_ASC_NODE": 97.6001, "ARG_OF_PERICENTER": 107.8966, "MEAN_ANOMALY": 198.7969, "EPHEMERIS_TYPE": 0, "CLASSIFICATION_TYPE": "U", "NORAD_CAT_ID": 31862, "ELEMENT_SET_NO": 999, "REV_AT_EPOCH": 4369, "BSTAR": 0, "MEAN_MOTION_DOT": -1e-06, "MEAN_MOTION_DDOT": 0}, "tle": {"line1": "1 31862U 07032A   25344.18864355 -.00000100  00000+0  00000+0 0  9990", "line2": "2 31862   0.0096  97.6001 0000399 107.8966 198.7969  1.00270185 43693"}}, "geometry": {"type": "Point", "coordinates": [150.13337278933056, 0.00040258927305917105]}}, {"type": "Feature", "properties": {"norad_id": 32253, "name": "INTELSAT 11 (IS-11)", "group": "intelsat", "lat": 2.277120065776976, "lon": 128.41315707308803, "alt_km": 36150.277464213876, "timestamp": "2025-12-10T11:33:53.059043+00:00", "meta": {"OBJECT_NAME": "INTELSAT 11 (IS-11)", "OBJECT_ID": "2007-044B", "EPOCH": "2025-12-10T03:34:38.548128", "MEAN_MOTION": 0.99047784, "ECCENTRICITY": 0.0009046, "INCLINATION": 3.0737, "RA_OF_ASC_NODE": 81.0031, "ARG_OF_PERICENTER": 164.9188, "MEAN_ANOMALY": 123.9529, "EPHEMERIS_TYPE": 0, "CLASSIFICATION_TYPE": "U", "NORAD_CAT_ID": 32253, "ELEMENT_SET_NO": 999, "REV_AT_EPOCH": 6657, "BSTAR": 0, "MEAN_MOTION_DOT": 7.7e-07, "MEAN_MOTION_DDOT": 0}, "tle": {"line1": "1 32253U 07044B   25344.14905727  .00000077  00000+0  00000+0 0  9995", "line2": "2 32253   3.0737  81.0031 0009046 164.9188 123.9529  0.99047784 66579"}}, "geometry": {"type": "Point", "coordinates": [128.41315707308803, 2.277120065776976]}}, {"type": "Feature", "properties": {"norad_id": 32388, "name": "HORIZONS-2", "group": "intelsat", "lat": 2.0993132282394993, "lon": 179.08814352902678, "alt_km": 35786.80030318542, "timestamp": "2025-12-10T11:33:53.059055+00:00", "meta": {"OBJECT_NAME": "HORIZONS-2", "OBJECT_ID": "2007-063B", "EPOCH": "2025-12-10T04:15:38.659392", "MEAN_MOTION": 1.00270369, "ECCENTRICITY": 0.0004997, "INCLINATION": 2.1151, "RA_OF_ASC_NODE": 82.986, "ARG_OF_PERICENTER": 187.7366, "MEAN_ANOMALY": 158.5607, "EPHEMERIS_TYPE": 0, "CLASSIFICATION_TYPE": "U", "NORAD_CAT_ID": 32388, "ELEMENT_SET_NO": 999, "REV_AT_EPOCH": 6591, "BSTAR": 0, "MEAN_MOTION_DOT": -2.5e-06, "MEAN_MOTION_DDOT": 0}, "tle": {"line1": "1 32388U 07063B   25344.17753078 -.00000250  00000+0  00000+0 0  9992", "line2": "2 32388   2.1151  82.9860 0004997 187.7366 158.5607  1.00270369 65917"}}, "geometry": {"type": "Point", "coordinates": [179.08814352902678, 2.0993132282394993]}}, {"type": "Feature", "properties": {"norad_id": 32729, "name": "DIRECTV 11", "group": "intelsat", "lat": -0.005838540137682869, "lon": 153.72858476386943, "alt_km": 35784.88753556536, "timestamp": "2025-12-10T11:33:53.059067+00:00", "meta": {"OBJECT_NAME": "DIRECTV 11", "OBJECT_ID": "2008-013A", "EPOCH": "2025-12-09T10:14:01.462848", "MEAN_MOTION": 1.0027202, "ECCENTRICITY": 4.14e-05, "INCLINATION": 0.0295, "RA_OF_ASC_NODE": 191.9729, "ARG_OF_PERICENTER": 10.0555, "MEAN_ANOMALY": 290.7006, "EPHEMERIS_TYPE": 0, "CLASSIFICATION_TYPE": "U", "NORAD_CAT_ID": 32729, "ELEMENT_SET_NO": 999, "REV_AT_EPOCH": 4369, "BSTAR": 0, "MEAN_MOTION_DOT": -1.23e-06, "MEAN_MOTION_DDOT": 0}, "tle": {"line1": "1 32729U 08013A   25343.42640582 -.00000123  00000+0  00000+0 0  9998", "line2": "2 32729   0.0295 191.9729 0000414  10.0555 290.7006  1.00272020 43694"}}, "geometry": {"type": "Point", "coordinates": [153.72858476386943, -0.005838540137682869]}}, {"type": "Feature", "properties": {"norad_id": 32951, "name": "GALAXY 18 (G-18)", "group": "intelsat", "lat": 0.004586526021126858, "lon": 129.89361218149142, "alt_km": 35794.79709908816, "timestamp": "2025-12-10T11:33:53.059079+00:00", "meta": {"OBJECT_NAME": "GALAXY 18 (G-18)", "OBJECT_ID": "2008-024A", "EPOCH": "2025-12-10T04:39:38.509344", "MEAN_MOTION": 1.00272828, "ECCENTRICITY": 0.000314, "INCLINATION": 0.0149, "RA_OF_ASC_NODE": 304.7103, "ARG_OF_PERICENTER": 317.9663, "MEAN_ANOMALY": 123.4015, "EPHEMERIS_TYPE": 0, "CLASSIFICATION_TYPE": "U", "NORAD_CAT_ID": 32951, "ELEMENT_SET_NO": 999, "REV_AT_EPOCH": 4395, "BSTAR": 0, "MEAN_MOTION_DOT": 2.8e-07, "MEAN_MOTION_DDOT": 0}, "tle": {"line1": "1 32951U 08024A   25344.19419571  .00000028  00000+0  00000+0 0  9997", "line2": "2 32951   0.0149 304.7103 0003140 317.9663 123.4015  1.00272828 43954"}}, "geometry": {"type": "Point", "coordinates": [129.89361218149142, 0.004586526021126858]}}]}